[{"OBJECT_NAME":"NOAA 18","OBJECT_ID":"2005-018A","EPOCH":"2026-03-26T05:52:26.680800","MEAN_MOTION":14.13714133,"ECCENTRICITY":0.00146915,"INCLINATION":98.8135,"RA_OF_ASC_NODE":166.1184,"ARG_OF_PERICENTER":30.8941,"MEAN_ANOMALY":329.3093,"EPHEMERIS_TYPE":0,"CLASSIFICATION_TYPE":"U","NORAD_CAT_ID":28654,"ELEMENT_SET_NO":999,"REV_AT_EPOCH":7459,"BSTAR":4.197591e-5,"MEAN_MOTION_DOT":3.6e-7,"MEAN_MOTION_DDOT":0},{"OBJECT_NAME":"NOAA 19","OBJECT_ID":"2009-005A","EPOCH":"2026-03-26T05:29:35.465280","MEAN_MOTION":14.13459886,"ECCENTRICITY":0.00127139,"INCLINATION":98.9577,"RA_OF_ASC_NODE":156.0254,"ARG_OF_PERICENTER":264.2003,"MEAN_ANOMALY":95.772,"EPHEMERIS_TYPE":0,"CLASSIFICATION_TYPE":"U","NORAD_CAT_ID":33591,"ELEMENT_SET_NO":999,"REV_AT_EPOCH":88276,"BSTAR":4.005747e-5,"MEAN_MOTION_DOT":3.0e-7,"MEAN_MOTION_DDOT":0},{"OBJECT_NAME":"SUOMI NPP","OBJECT_ID":"2011-061A","EPOCH":"2026-03-26T07:22:39.655488","MEAN_MOTION":14.1949778,"ECCENTRICITY":0.00015359,"INCLINATION":98.7889,"RA_OF_ASC_NODE":26.7797,"ARG_OF_PERICENTER":164.8537,"MEAN_ANOMALY":195.2685,"EPHEMERIS_TYPE":0,"CLASSIFICATION_TYPE":"U","NORAD_CAT_ID":37849,"ELEMENT_SET_NO":999,"REV_AT_EPOCH":74668,"BSTAR":7.009932e-5,"MEAN_MOTION_DOT":1.03e-6,"MEAN_MOTION_DDOT":0},{"OBJECT_NAME":"NOAA 20 (JPSS-1)","OBJECT_ID":"2017-073A","EPOCH":"2026-03-26T06:02:02.535072","MEAN_MOTION":14.19540214,"ECCENTRICITY":0.00018191,"INCLINATION":98.771,"RA_OF_ASC_NODE":25.4758,"ARG_OF_PERICENTER":115.5877,"MEAN_ANOMALY":244.5487,"EPHEMERIS_TYPE":0,"CLASSIFICATION_TYPE":"U","NORAD_CAT_ID":43013,"ELEMENT_SET_NO":999,"REV_AT_EPOCH":43270,"BSTAR":5.0380437e-5,"MEAN_MOTION_DOT":6.2e-7,"MEAN_MOTION_DDOT":0}]
