NOAA 18                 
1 28654U 05018A   26085.24475325  .00000036  00000+0  41976-4 0  9991
2 28654  98.8135 166.1184 0014691  30.8941 329.3093 14.13714133 74596
NOAA 19                 
1 33591U 09005A   26085.22888270  .00000030  00000+0  40057-4 0  9995
2 33591  98.9577 156.0254 0012713 264.2003  95.7720 14.13459886882762
SUOMI NPP               
1 37849U 11061A   26085.30740342  .00000103  00000+0  70099-4 0  9996
2 37849  98.7889  26.7797 0001535 164.8537 195.2685 14.19497780746685
NOAA 20 (JPSS-1)        
1 43013U 17073A   26085.25141823  .00000062  00000+0  50380-4 0  9993
2 43013  98.7710  25.4758 0001819 115.5877 244.5487 14.19540214432700
